{
  "type": "FeatureCollection",
  "features": [
    {
      "type": "Feature",
      "properties": {
        "norad_id": 66503,
        "name": "STARLINK-35917",
        "group": "last-30-days",
        "lat": 42.16536107416652,
        "lon": -131.0642851297819,
        "alt_km": 424.136550457074,
        "timestamp": "2025-12-12T16:50:31.910261+00:00",
        "meta_object_name": "STARLINK-35917",
        "meta_object_id": "2025-263U",
        "meta_epoch": "2025-12-12T06:00:00.999648",
        "meta_mean_motion": 15.47630674,
        "meta_eccentricity": 0.00015402,
        "meta_inclination": 42.9999,
        "meta_ra_of_asc_node": 127.943,
        "meta_arg_of_pericenter": 281.2686,
        "meta_mean_anomaly": 180.5152,
        "meta_ephemeris_type": 0,
        "meta_classification_type": "U",
        "meta_norad_cat_id": 66503,
        "meta_element_set_no": 999,
        "meta_rev_at_epoch": 555,
        "meta_bstar": -0.043374684,
        "meta_mean_motion_dot": -0.02041877,
        "meta_mean_motion_ddot": 0,
        "tle_line1": "1 66503U 25263U   25346.25001157 -.02041877  00000+0 -43375-1 0  9992",
        "tle_line2": "2 66503  42.9999 127.9430 0001540 281.2686 180.5152 15.47630674  5553"
      },
      "geometry": {
        "type": "Point",
        "coordinates": [
          -131.0642851297819,
          42.16536107416652
        ]
      }
    },
    {
      "type": "Feature",
      "properties": {
        "norad_id": 66504,
        "name": "STARLINK-35916",
        "group": "last-30-days",
        "lat": -9.175510666028497,
        "lon": -43.16799621431178,
        "alt_km": 444.267574893277,
        "timestamp": "2025-12-12T16:50:31.910271+00:00",
        "meta_object_name": "STARLINK-35916",
        "meta_object_id": "2025-263V",
        "meta_epoch": "2025-12-11T18:13:29.701056",
        "meta_mean_motion": 15.40730519,
        "meta_eccentricity": 0.00019694,
        "meta_inclination": 43.0002,
        "meta_ra_of_asc_node": 132.2825,
        "meta_arg_of_pericenter": 261.4759,
        "meta_mean_anomaly": 98.5874,
        "meta_ephemeris_type": 0,
        "meta_classification_type": "U",
        "meta_norad_cat_id": 66504,
        "meta_element_set_no": 999,
        "meta_rev_at_epoch": 539,
        "meta_bstar": 0.0008844206,
        "meta_mean_motion_dot": 0.00036858,
        "meta_mean_motion_ddot": 0,
        "tle_line1": "1 66504U 25263V   25345.75937154  .00036858  00000+0  88442-3 0  9997",
        "tle_line2": "2 66504  43.0002 132.2825 0001969 261.4759  98.5874 15.40730519  5397"
      },
      "geometry": {
        "type": "Point",
        "coordinates": [
          -43.16799621431178,
          -9.175510666028497
        ]
      }
    },
    {
      "type": "Feature",
      "properties": {
        "norad_id": 66505,
        "name": "STARLINK-34766",
        "group": "last-30-days",
        "lat": 41.77410365958464,
        "lon": -128.14668954995975,
        "alt_km": 409.2563816703023,
        "timestamp": "2025-12-12T16:50:31.910281+00:00",
        "meta_object_name": "STARLINK-34766",
        "meta_object_id": "2025-263W",
        "meta_epoch": "2025-12-12T00:00:04.999968",
        "meta_mean_motion": 15.50506374,
        "meta_eccentricity": 0.00014252,
        "meta_inclination": 43.0004,
        "meta_ra_of_asc_node": 129.416,
        "meta_arg_of_pericenter": 277.2508,
        "meta_mean_anomaly": 223.4019,
        "meta_ephemeris_type": 0,
        "meta_classification_type": "U",
        "meta_norad_cat_id": 66505,
        "meta_element_set_no": 999,
        "meta_rev_at_epoch": 551,
        "meta_bstar": 0.0012404313,
        "meta_mean_motion_dot": 0.0007292,
        "meta_mean_motion_ddot": 0,
        "tle_line1": "1 66505U 25263W   25346.00005787  .00072920  00000+0  12404-2 0  9999",
        "tle_line2": "2 66505  43.0004 129.4160 0001425 277.2508 223.4019 15.50506374  5519"
      },
      "geometry": {
        "type": "Point",
        "coordinates": [
          -128.14668954995975,
          41.77410365958464
        ]
      }
    },
    {
      "type": "Feature",
      "properties": {
        "norad_id": 66506,
        "name": "STARLINK-34765",
        "group": "last-30-days",
        "lat": 41.36889993887187,
        "lon": -125.61139403698024,
        "alt_km": 409.3747260715436,
        "timestamp": "2025-12-12T16:50:31.910293+00:00",
        "meta_object_name": "STARLINK-34765",
        "meta_object_id": "2025-263X",
        "meta_epoch": "2025-12-12T00:00:04.999968",
        "meta_mean_motion": 15.50502556,
        "meta_eccentricity": 0.00016454,
        "meta_inclination": 43.0003,
        "meta_ra_of_asc_node": 129.412,
        "meta_arg_of_pericenter": 276.5196,
        "meta_mean_anomaly": 226.0412,
        "meta_ephemeris_type": 0,
        "meta_classification_type": "U",
        "meta_norad_cat_id": 66506,
        "meta_element_set_no": 999,
        "meta_rev_at_epoch": 551,
        "meta_bstar": 0.0016455966,
        "meta_mean_motion_dot": 0.00097139,
        "meta_mean_motion_ddot": 0,
        "tle_line1": "1 66506U 25263X   25346.00005787  .00097139  00000+0  16456-2 0  9990",
        "tle_line2": "2 66506  43.0003 129.4120 0001645 276.5196 226.0412 15.50502556  5518"
      },
      "geometry": {
        "type": "Point",
        "coordinates": [
          -125.61139403698024,
          41.36889993887187
        ]
      }
    },
    {
      "type": "Feature",
      "properties": {
        "norad_id": 66507,
        "name": "STARLINK-34767",
        "group": "last-30-days",
        "lat": 42.60187405890614,
        "lon": -153.9484999824463,
        "alt_km": 432.55036198056405,
        "timestamp": "2025-12-12T16:50:31.910304+00:00",
        "meta_object_name": "STARLINK-34767",
        "meta_object_id": "2025-263Y",
        "meta_epoch": "2025-12-12T06:00:00.999648",
        "meta_mean_motion": 15.44726368,
        "meta_eccentricity": 0.0001469,
        "meta_inclination": 43.0005,
        "meta_ra_of_asc_node": 127.972,
        "meta_arg_of_pericenter": 272.5299,
        "meta_mean_anomaly": 177.1256,
        "meta_ephemeris_type": 0,
        "meta_classification_type": "U",
        "meta_norad_cat_id": 66507,
        "meta_element_set_no": 999,
        "meta_rev_at_epoch": 555,
        "meta_bstar": -0.047961618,
        "meta_mean_motion_dot": -0.02040741,
        "meta_mean_motion_ddot": 0,
        "tle_line1": "1 66507U 25263Y   25346.25001157 -.02040741  00000+0 -47962-1 0  9991",
        "tle_line2": "2 66507  43.0005 127.9720 0001469 272.5299 177.1256 15.44726368  5552"
      },
      "geometry": {
        "type": "Point",
        "coordinates": [
          -153.9484999824463,
          42.60187405890614
        ]
      }
    },
    {
      "type": "Feature",
      "properties": {
        "norad_id": 66508,
        "name": "STARLINK-35608",
        "group": "last-30-days",
        "lat": 39.17918567085789,
        "lon": -115.70995115794351,
        "alt_km": 414.53662482834625,
        "timestamp": "2025-12-12T16:50:31.910314+00:00",
        "meta_object_name": "STARLINK-35608",
        "meta_object_id": "2025-263Z",
        "meta_epoch": "2025-12-12T00:00:04.999968",
        "meta_mean_motion": 15.50968309,
        "meta_eccentricity": 8.258e-05,
        "meta_inclination": 42.9998,
        "meta_ra_of_asc_node": 129.3871,
        "meta_arg_of_pericenter": 275.7542,
        "meta_mean_anomaly": 236.3097,
        "meta_ephemeris_type": 0,
        "meta_classification_type": "U",
        "meta_norad_cat_id": 66508,
        "meta_element_set_no": 999,
        "meta_rev_at_epoch": 551,
        "meta_bstar": -0.025649805,
        "meta_mean_motion_dot": -0.01371197,
        "meta_mean_motion_ddot": 0,
        "tle_line1": "1 66508U 25263Z   25346.00005787 -.01371197  00000+0 -25650-1 0  9999",
        "tle_line2": "2 66508  42.9998 129.3871 0000825 275.7542 236.3097 15.50968309  5513"
      },
      "geometry": {
        "type": "Point",
        "coordinates": [
          -115.70995115794351,
          39.17918567085789
        ]
      }
    },
    {
      "type": "Feature",
      "properties": {
        "norad_id": 66509,
        "name": "STARLINK-35598",
        "group": "last-30-days",
        "lat": 35.56591697516056,
        "lon": -104.85290354244836,
        "alt_km": 410.3085094134267,
        "timestamp": "2025-12-12T16:50:31.910338+00:00",
        "meta_object_name": "STARLINK-35598",
        "meta_object_id": "2025-263AA",
        "meta_epoch": "2025-12-12T00:00:04.999968",
        "meta_mean_motion": 15.50512553,
        "meta_eccentricity": 0.00016208,
        "meta_inclination": 43.0001,
        "meta_ra_of_asc_node": 129.3664,
        "meta_arg_of_pericenter": 280.0476,
        "meta_mean_anomaly": 239.7558,
        "meta_ephemeris_type": 0,
        "meta_classification_type": "U",
        "meta_norad_cat_id": 66509,
        "meta_element_set_no": 999,
        "meta_rev_at_epoch": 551,
        "meta_bstar": 0.0011998415,
        "meta_mean_motion_dot": 0.00070517,
        "meta_mean_motion_ddot": 0,
        "tle_line1": "1 66509U 25263AA  25346.00005787  .00070517  00000+0  11998-2 0  9990",
        "tle_line2": "2 66509  43.0001 129.3664 0001620 280.0476 239.7558 15.50512553  5515"
      },
      "geometry": {
        "type": "Point",
        "coordinates": [
          -104.85290354244836,
          35.56591697516056
        ]
      }
    }
  ]
}